; Delta robot path export
; Generated by launch_delta_gui.m
G21
G90
G1 F3600
G1 X-0.000 Y-0.000 Z152.984
G1 X5.833 Y-3.333 Z154.653
G1 X11.667 Y-6.667 Z156.323
G1 X17.500 Y-10.000 Z157.992
G1 X23.333 Y-13.333 Z159.661
G1 X29.167 Y-16.667 Z161.331
G1 X35.000 Y-20.000 Z163.000
G1 X35.000 Y-20.000 Z171.000
G1 X35.000 Y-20.000 Z179.000
G1 X35.000 Y-20.000 Z187.000
G1 X35.000 Y-20.000 Z179.000
G1 X35.000 Y-20.000 Z171.000
G1 X35.000 Y-20.000 Z163.000
G1 X30.318 Y-23.762 Z162.120
G1 X25.637 Y-27.524 Z161.239
G1 X20.955 Y-31.286 Z160.359
G1 X16.273 Y-35.048 Z159.478
G1 X11.592 Y-38.810 Z158.598
G1 X6.910 Y-42.572 Z157.717
G1 X2.228 Y-46.335 Z156.837
G1 X-2.453 Y-50.097 Z155.956
G1 X-7.135 Y-53.859 Z155.076
G1 X-11.817 Y-57.621 Z154.195
G1 X-16.498 Y-61.383 Z153.315
G1 X-21.180 Y-65.145 Z152.434
G1 X-25.862 Y-68.907 Z151.554
G1 X-30.543 Y-72.669 Z150.673
G1 X-35.225 Y-76.431 Z149.793
G1 X-39.907 Y-80.193 Z148.912
G1 X-39.907 Y-80.193 Z156.912
G1 X-39.907 Y-80.193 Z164.912
G1 X-39.907 Y-80.193 Z172.912
G1 X-39.907 Y-80.193 Z164.912
G1 X-39.907 Y-80.193 Z156.912
G1 X-39.907 Y-80.193 Z148.912
G1 X-37.056 Y-74.465 Z149.203
G1 X-34.206 Y-68.737 Z149.494
G1 X-31.355 Y-63.009 Z149.785
G1 X-28.505 Y-57.281 Z150.075
G1 X-25.654 Y-51.553 Z150.366
G1 X-22.804 Y-45.825 Z150.657
G1 X-19.953 Y-40.097 Z150.948
G1 X-17.103 Y-34.369 Z151.239
G1 X-14.252 Y-28.640 Z151.530
G1 X-11.402 Y-22.912 Z151.820
G1 X-8.551 Y-17.184 Z152.111
G1 X-5.701 Y-11.456 Z152.402
G1 X-2.850 Y-5.728 Z152.693
G1 X-0.000 Y-0.000 Z152.984
M2
