; Delta robot path export
; Generated by launch_delta_gui.m
G21
G90
G1 F36000
G1 X0.005 Y-0.008 Z140.611
G1 X4.948 Y-2.827 Z143.814
G1 X9.946 Y-5.755 Z147.013
G1 X14.987 Y-8.615 Z150.215
G1 X19.991 Y-11.456 Z153.363
G1 X25.058 Y-14.275 Z156.596
G1 X29.971 Y-17.115 Z159.741
G1 X34.972 Y-20.014 Z163.044
G1 X34.972 Y-20.085 Z171.048
G1 X34.986 Y-19.980 Z178.904
G1 X35.071 Y-20.020 Z187.036
G1 X29.166 Y-18.553 Z185.720
G1 X23.348 Y-17.172 Z184.311
G1 X17.576 Y-15.771 Z183.001
G1 X11.697 Y-14.327 Z181.657
G1 X5.838 Y-12.861 Z180.412
G1 X-0.024 Y-11.349 Z179.038
G1 X-5.764 Y-10.022 Z177.677
G1 X-11.597 Y-8.551 Z176.355
G1 X-17.490 Y-7.047 Z175.129
G1 X-23.248 Y-5.600 Z173.791
G1 X-29.158 Y-4.208 Z172.449
G1 X-34.918 Y-2.773 Z171.093
G1 X-40.838 Y-1.293 Z169.795
G1 X-46.651 Y0.044 Z168.474
G1 X-52.372 Y1.615 Z167.134
G1 X-58.301 Y2.958 Z165.887
G1 X-64.046 Y4.437 Z164.495
G1 X-69.879 Y5.872 Z163.148
G1 X-75.825 Y7.262 Z161.813
G1 X-81.551 Y8.699 Z160.600
G1 X-75.692 Y8.069 Z159.118
G1 X-69.921 Y7.433 Z157.657
G1 X-64.093 Y6.797 Z156.232
G1 X-58.228 Y6.163 Z154.830
G1 X-52.507 Y5.614 Z153.364
G1 X-46.614 Y4.993 Z151.987
G1 X-40.729 Y4.380 Z150.606
G1 X-35.018 Y3.696 Z149.173
G1 X-29.175 Y3.105 Z147.772
G1 X-23.247 Y2.523 Z146.302
G1 X-17.441 Y1.877 Z144.927
G1 X-11.661 Y1.241 Z143.514
G1 X-5.812 Y0.613 Z141.994
G1 X0.005 Y-0.008 Z140.611
M2
